{
  "name": "SATGUS",
  "line1": "1 62713U 25009DJ  26013.18095209  .00004991  00000+0  41831-3 0  9993",
  "line2": "2 62713  97.7205  95.9860 0000694 348.4786  11.6421 14.98848978 54322",
  "fetched_at": "2026-01-14T00:20:47.428296+00:00"
}